<?xml version="1.0" encoding="UTF-8"?>
<ndm xmlns:xsi="http://www.w3.org/2001/XMLSchema-instance" xsi:noNamespaceSchemaLocation="https://sanaregistry.org/r/ndmxml_unqualified/ndmxml-2.0.0-master-2.0.xsd">
<omm id="CCSDS_OMM_VERS" version="2.0">
<header><CREATION_DATE/><ORIGINATOR/></header><body><segment><metadata><OBJECT_NAME>ONEWEB-0317</OBJECT_NAME><OBJECT_ID>2021-075AE</OBJECT_ID><CENTER_NAME>EARTH</CENTER_NAME><REF_FRAME>TEME</REF_FRAME><TIME_SYSTEM>UTC</TIME_SYSTEM><MEAN_ELEMENT_THEORY>SGP4</MEAN_ELEMENT_THEORY></metadata><data><meanElements><EPOCH>2024-03-12T06:13:39.504000</EPOCH><MEAN_MOTION>13.12443194</MEAN_MOTION><ECCENTRICITY>.0001744</ECCENTRICITY><INCLINATION>87.9027</INCLINATION><RA_OF_ASC_NODE>155.2577</RA_OF_ASC_NODE><ARG_OF_PERICENTER>106.7095</ARG_OF_PERICENTER><MEAN_ANOMALY>253.4225</MEAN_ANOMALY></meanElements><tleParameters><EPHEMERIS_TYPE>0</EPHEMERIS_TYPE><CLASSIFICATION_TYPE>U</CLASSIFICATION_TYPE><NORAD_CAT_ID>49103</NORAD_CAT_ID><ELEMENT_SET_NO>999</ELEMENT_SET_NO><REV_AT_EPOCH>12672</REV_AT_EPOCH><BSTAR>-.95432E-3</BSTAR><MEAN_MOTION_DOT>-.331E-5</MEAN_MOTION_DOT><MEAN_MOTION_DDOT>0</MEAN_MOTION_DDOT></tleParameters></data></segment></body></omm>
<omm id="CCSDS_OMM_VERS" version="2.0">
<header><CREATION_DATE/><ORIGINATOR/></header><body><segment><metadata><OBJECT_NAME>ONEWEB-0318</OBJECT_NAME><OBJECT_ID>2021-075AF</OBJECT_ID><CENTER_NAME>EARTH</CENTER_NAME><REF_FRAME>TEME</REF_FRAME><TIME_SYSTEM>UTC</TIME_SYSTEM><MEAN_ELEMENT_THEORY>SGP4</MEAN_ELEMENT_THEORY></metadata><data><meanElements><EPOCH>2024-03-12T15:12:23.637024</EPOCH><MEAN_MOTION>13.18687232</MEAN_MOTION><ECCENTRICITY>.0002374</ECCENTRICITY><INCLINATION>87.9205</INCLINATION><RA_OF_ASC_NODE>139.9790</RA_OF_ASC_NODE><ARG_OF_PERICENTER>105.5140</ARG_OF_PERICENTER><MEAN_ANOMALY>254.6255</MEAN_ANOMALY></meanElements><tleParameters><EPHEMERIS_TYPE>0</EPHEMERIS_TYPE><CLASSIFICATION_TYPE>U</CLASSIFICATION_TYPE><NORAD_CAT_ID>49104</NORAD_CAT_ID><ELEMENT_SET_NO>999</ELEMENT_SET_NO><REV_AT_EPOCH>12823</REV_AT_EPOCH><BSTAR>-.85027E-4</BSTAR><MEAN_MOTION_DOT>-.21E-6</MEAN_MOTION_DOT><MEAN_MOTION_DDOT>0</MEAN_MOTION_DDOT></tleParameters></data></segment></body></omm>
<omm id="CCSDS_OMM_VERS" version="2.0">
<header><CREATION_DATE/><ORIGINATOR/></header><body><segment><metadata><OBJECT_NAME>ONEWEB-0319</OBJECT_NAME><OBJECT_ID>2021-075AG</OBJECT_ID><CENTER_NAME>EARTH</CENTER_NAME><REF_FRAME>TEME</REF_FRAME><TIME_SYSTEM>UTC</TIME_SYSTEM><MEAN_ELEMENT_THEORY>SGP4</MEAN_ELEMENT_THEORY></metadata><data><meanElements><EPOCH>2024-03-12T07:18:33.530400</EPOCH><MEAN_MOTION>13.17650378</MEAN_MOTION><ECCENTRICITY>.0002461</ECCENTRICITY><INCLINATION>87.9263</INCLINATION><RA_OF_ASC_NODE>170.3795</RA_OF_ASC_NODE><ARG_OF_PERICENTER>115.3950</ARG_OF_PERICENTER><MEAN_ANOMALY>244.7436</MEAN_ANOMALY></meanElements><tleParameters><EPHEMERIS_TYPE>0</EPHEMERIS_TYPE><CLASSIFICATION_TYPE>U</CLASSIFICATION_TYPE><NORAD_CAT_ID>49105</NORAD_CAT_ID><ELEMENT_SET_NO>999</ELEMENT_SET_NO><REV_AT_EPOCH>12471</REV_AT_EPOCH><BSTAR>.33717E-4</BSTAR><MEAN_MOTION_DOT>.26E-6</MEAN_MOTION_DOT><MEAN_MOTION_DDOT>0</MEAN_MOTION_DDOT></tleParameters></data></segment></body></omm>
<omm id="CCSDS_OMM_VERS" version="2.0">
<header><CREATION_DATE/><ORIGINATOR/></header><body><segment><metadata><OBJECT_NAME>ONEWEB-0323</OBJECT_NAME><OBJECT_ID>2021-075AH</OBJECT_ID><CENTER_NAME>EARTH</CENTER_NAME><REF_FRAME>TEME</REF_FRAME><TIME_SYSTEM>UTC</TIME_SYSTEM><MEAN_ELEMENT_THEORY>SGP4</MEAN_ELEMENT_THEORY></metadata><data><meanElements><EPOCH>2024-03-13T05:47:05.925984</EPOCH><MEAN_MOTION>13.12442154</MEAN_MOTION><ECCENTRICITY>.0002177</ECCENTRICITY><INCLINATION>87.9025</INCLINATION><RA_OF_ASC_NODE>155.0512</RA_OF_ASC_NODE><ARG_OF_PERICENTER>109.7768</ARG_OF_PERICENTER><MEAN_ANOMALY>250.3595</MEAN_ANOMALY></meanElements><tleParameters><EPHEMERIS_TYPE>0</EPHEMERIS_TYPE><CLASSIFICATION_TYPE>U</CLASSIFICATION_TYPE><NORAD_CAT_ID>49106</NORAD_CAT_ID><ELEMENT_SET_NO>999</ELEMENT_SET_NO><REV_AT_EPOCH>12721</REV_AT_EPOCH><BSTAR>-.57799E-3</BSTAR><MEAN_MOTION_DOT>-.195E-5</MEAN_MOTION_DOT><MEAN_MOTION_DDOT>0</MEAN_MOTION_DDOT></tleParameters></data></segment></body></omm>
<omm id="CCSDS_OMM_VERS" version="2.0">
<header><CREATION_DATE/><ORIGINATOR/></header><body><segment><metadata><OBJECT_NAME>ONEWEB-0329</OBJECT_NAME><OBJECT_ID>2021-075AJ</OBJECT_ID><CENTER_NAME>EARTH</CENTER_NAME><REF_FRAME>TEME</REF_FRAME><TIME_SYSTEM>UTC</TIME_SYSTEM><MEAN_ELEMENT_THEORY>SGP4</MEAN_ELEMENT_THEORY></metadata><data><meanElements><EPOCH>2024-03-13T05:22:06.979296</EPOCH><MEAN_MOTION>13.17651387</MEAN_MOTION><ECCENTRICITY>.000203</ECCENTRICITY><INCLINATION>87.9260</INCLINATION><RA_OF_ASC_NODE>170.2017</RA_OF_ASC_NODE><ARG_OF_PERICENTER>112.1548</ARG_OF_PERICENTER><MEAN_ANOMALY>247.9799</MEAN_ANOMALY></meanElements><tleParameters><EPHEMERIS_TYPE>0</EPHEMERIS_TYPE><CLASSIFICATION_TYPE>U</CLASSIFICATION_TYPE><NORAD_CAT_ID>49107</NORAD_CAT_ID><ELEMENT_SET_NO>999</ELEMENT_SET_NO><REV_AT_EPOCH>12580</REV_AT_EPOCH><BSTAR>.26401E-3</BSTAR><MEAN_MOTION_DOT>.115E-5</MEAN_MOTION_DOT><MEAN_MOTION_DDOT>0</MEAN_MOTION_DDOT></tleParameters></data></segment></body></omm>
<omm id="CCSDS_OMM_VERS" version="2.0">
<header><CREATION_DATE/><ORIGINATOR/></header><body><segment><metadata><OBJECT_NAME>ONEWEB-0330</OBJECT_NAME><OBJECT_ID>2021-075AK</OBJECT_ID><CENTER_NAME>EARTH</CENTER_NAME><REF_FRAME>TEME</REF_FRAME><TIME_SYSTEM>UTC</TIME_SYSTEM><MEAN_ELEMENT_THEORY>SGP4</MEAN_ELEMENT_THEORY></metadata><data><meanElements><EPOCH>2024-03-12T07:32:12.925536</EPOCH><MEAN_MOTION>13.17650506</MEAN_MOTION><ECCENTRICITY>.0001866</ECCENTRICITY><INCLINATION>87.9260</INCLINATION><RA_OF_ASC_NODE>170.3812</RA_OF_ASC_NODE><ARG_OF_PERICENTER>116.2864</ARG_OF_PERICENTER><MEAN_ANOMALY>243.8460</MEAN_ANOMALY></meanElements><tleParameters><EPHEMERIS_TYPE>0</EPHEMERIS_TYPE><CLASSIFICATION_TYPE>U</CLASSIFICATION_TYPE><NORAD_CAT_ID>49108</NORAD_CAT_ID><ELEMENT_SET_NO>999</ELEMENT_SET_NO><REV_AT_EPOCH>12473</REV_AT_EPOCH><BSTAR>-.1046E-3</BSTAR><MEAN_MOTION_DOT>-.28E-6</MEAN_MOTION_DOT><MEAN_MOTION_DDOT>0</MEAN_MOTION_DDOT></tleParameters></data></segment></body></omm>
<omm id="CCSDS_OMM_VERS" version="2.0">
<header><CREATION_DATE/><ORIGINATOR/></header><body><segment><metadata><OBJECT_NAME>ONEWEB-0292</OBJECT_NAME><OBJECT_ID>2021-083A</OBJECT_ID><CENTER_NAME>EARTH</CENTER_NAME><REF_FRAME>TEME</REF_FRAME><TIME_SYSTEM>UTC</TIME_SYSTEM><MEAN_ELEMENT_THEORY>SGP4</MEAN_ELEMENT_THEORY></metadata><data><meanElements><EPOCH>2024-03-13T04:05:43.289088</EPOCH><MEAN_MOTION>13.13469701</MEAN_MOTION><ECCENTRICITY>.0002158</ECCENTRICITY><INCLINATION>87.8945</INCLINATION><RA_OF_ASC_NODE>124.6930</RA_OF_ASC_NODE><ARG_OF_PERICENTER>99.0515</ARG_OF_PERICENTER><MEAN_ANOMALY>261.0858</MEAN_ANOMALY></meanElements><tleParameters><EPHEMERIS_TYPE>0</EPHEMERIS_TYPE><CLASSIFICATION_TYPE>U</CLASSIFICATION_TYPE><NORAD_CAT_ID>49186</NORAD_CAT_ID><ELEMENT_SET_NO>999</ELEMENT_SET_NO><REV_AT_EPOCH>12378</REV_AT_EPOCH><BSTAR>-.63255E-3</BSTAR><MEAN_MOTION_DOT>-.218E-5</MEAN_MOTION_DOT><MEAN_MOTION_DDOT>0</MEAN_MOTION_DDOT></tleParameters></data></segment></body></omm>
<omm id="CCSDS_OMM_VERS" version="2.0">
<header><CREATION_DATE/><ORIGINATOR/></header><body><segment><metadata><OBJECT_NAME>ONEWEB-0303</OBJECT_NAME><OBJECT_ID>2021-083B</OBJECT_ID><CENTER_NAME>EARTH</CENTER_NAME><REF_FRAME>TEME</REF_FRAME><TIME_SYSTEM>UTC</TIME_SYSTEM><MEAN_ELEMENT_THEORY>SGP4</MEAN_ELEMENT_THEORY></metadata><data><meanElements><EPOCH>2024-03-12T22:24:55.015776</EPOCH><MEAN_MOTION>13.18684529</MEAN_MOTION><ECCENTRICITY>.0002307</ECCENTRICITY><INCLINATION>87.9202</INCLINATION><RA_OF_ASC_NODE>139.9182</RA_OF_ASC_NODE><ARG_OF_PERICENTER>104.5157</ARG_OF_PERICENTER><MEAN_ANOMALY>255.6231</MEAN_ANOMALY></meanElements><tleParameters><EPHEMERIS_TYPE>0</EPHEMERIS_TYPE><CLASSIFICATION_TYPE>U</CLASSIFICATION_TYPE><NORAD_CAT_ID>49187</NORAD_CAT_ID><ELEMENT_SET_NO>999</ELEMENT_SET_NO><REV_AT_EPOCH>12108</REV_AT_EPOCH><BSTAR>-.16682E-5</BSTAR><MEAN_MOTION_DOT>.12E-6</MEAN_MOTION_DOT><MEAN_MOTION_DDOT>0</MEAN_MOTION_DDOT></tleParameters></data></segment></body></omm>

</ndm>
