ONEWEB-0317             
1 49103U 21075AE  24072.25948500 -.00000331  00000+0 -95432-3 0  9994
2 49103  87.9027 155.2577 0001744 106.7095 253.4225 13.12443194126721
ONEWEB-0318             
1 49104U 21075AF  24072.63360691 -.00000021  00000+0 -85027-4 0  9992
2 49104  87.9205 139.9790 0002374 105.5140 254.6255 13.18687232128237
ONEWEB-0319             
1 49105U 21075AG  24072.30455475  .00000026  00000+0  33717-4 0  9994
2 49105  87.9263 170.3795 0002461 115.3950 244.7436 13.17650378124711
ONEWEB-0323             
1 49106U 21075AH  24073.24104081 -.00000195  00000+0 -57799-3 0  9997
2 49106  87.9025 155.0512 0002177 109.7768 250.3595 13.12442154127216
ONEWEB-0329             
1 49107U 21075AJ  24073.22369189  .00000115  00000+0  26401-3 0  9994
2 49107  87.9260 170.2017 0002030 112.1548 247.9799 13.17651387125805
ONEWEB-0330             
1 49108U 21075AK  24072.31403849 -.00000028  00000+0 -10460-3 0  9999
2 49108  87.9260 170.3812 0001866 116.2864 243.8460 13.17650506124735
ONEWEB-0292             
1 49186U 21083A   24073.17063992 -.00000218  00000+0 -63255-3 0  9991
2 49186  87.8945 124.6930 0002158  99.0515 261.0858 13.13469701123787
ONEWEB-0303             
1 49187U 21083B   24072.93397009  .00000012  00000+0 -16682-5 0  9999
2 49187  87.9202 139.9182 0002307 104.5157 255.6231 13.18684529121080
